GLOBALSTAR M063         
1 26081U 00008A   25217.61185690 -.00000047  00000+0  52625-3 0  9992
2 26081  51.9983 341.4064 0005026  59.3271 314.0960 11.86174540163444
GLOBALSTAR M062         
1 26082U 00008B   25217.48121581 -.00000178  00000+0 -57125-3 0  9993
2 26082  51.9869 310.8258 0007235 212.7949 227.8431 12.43469834502756
GLOBALSTAR M060         
1 26083U 00008C   25217.58125279  .00000096  00000+0  18593-2 0  9995
2 26083  52.0014 277.5279 0003447 220.5448 287.8142 12.17663634158381
GLOBALSTAR M064         
1 26084U 00008D   25217.00530749 -.00000062  00000+0  29682-3 0  9991
2 26084  52.0033  81.2550 0001654 121.3865 238.7129 11.88535430172907
GLOBALSTAR M065         
1 31571U 07020A   25217.56187603 -.00000098  00000+0  35068-4 0  9992
2 31571  51.9893  75.9861 0010846  58.6568 337.5933 12.62010396839640
GLOBALSTAR M069         
1 31573U 07020C   25217.58903856 -.00000093  00000+0 -46749-6 0  9998
2 31573  52.0082  65.3851 0000683 218.8605 171.8382 12.23457098840174
GLOBALSTAR M072         
1 31574U 07020D   25217.31903707 -.00000058  00000+0  35055-3 0  9990
2 31574  51.9900 221.1697 0001022  58.0831 314.9934 11.91651039837326
GLOBALSTAR M071         
1 31576U 07020F   25217.04800219 -.00000116  00000+0 -24812-3 0  9991
2 31576  52.0060  93.9138 0000437 135.1042  12.8557 12.18256887500898
